[{"OBJECT_NAME":"STARLINK-4027","OBJECT_ID":"2022-052D","EPOCH":"2026-03-09T20:46:25.021632","MEAN_MOTION":15.08836121,"ECCENTRICITY":0.00012999,"INCLINATION":53.2159,"RA_OF_ASC_NODE":278.3341,"ARG_OF_PERICENTER":91.3033,"MEAN_ANOMALY":268.8108,"EPHEMERIS_TYPE":0,"CLASSIFICATION_TYPE":"U","NORAD_CAT_ID":52601,"ELEMENT_SET_NO":999,"REV_AT_EPOCH":21168,"BSTAR":-7.296261e-6,"MEAN_MOTION_DOT":-4.04e-6,"MEAN_MOTION_DDOT":0},{"OBJECT_NAME":"ICEYE-X67","OBJECT_ID":"2025-248K","EPOCH":"2026-03-09T22:00:01.999584","MEAN_MOTION":15.09405994,"ECCENTRICITY":0.00063951,"INCLINATION":45.4045,"RA_OF_ASC_NODE":295.7576,"ARG_OF_PERICENTER":209.4534,"MEAN_ANOMALY":51.9892,"EPHEMERIS_TYPE":0,"CLASSIFICATION_TYPE":"U","NORAD_CAT_ID":66302,"ELEMENT_SET_NO":999,"REV_AT_EPOCH":578,"BSTAR":-0.000164009,"MEAN_MOTION_DOT":-2.917e-5,"MEAN_MOTION_DDOT":0}]
